NORAD_CAT_ID,OBJECT_NAME,OBJECT_TYPE,EPOCH,MEAN_MOTION,ECCENTRICITY,INCLINATION,RA_OF_ASC_NODE,ARG_OF_PERICENTER,MEAN_ANOMALY,BSTAR,MEAN_MOTION_DOT,MEAN_MOTION_DDOT,TLE_LINE0,TLE_LINE1,TLE_LINE2,SEMIMAJOR_AXIS,PERIOD,APOGEE,PERIGEE,DECAYED
51749.0,STARLINK-3451,PAYLOAD,2023-04-05 05:00:07,15.07843131,0.0002179,53.2175,80.2185,144.973,215.1405,-0.007022,-0.00107424,0.0,0 STARLINK-3451,1 51749U 22016AM  23095.20841761 -.00107424  00000-0 -70220-2 0  9998,2 51749  53.2175  80.2185 0002179 144.9730 215.1405 15.07843131 63215,6920.929,95.501,544.302,541.286,0.0
51749.0,STARLINK-3451,PAYLOAD,2023-04-05 14:00:01,15.07203691,0.0001514,53.215,78.5363,84.689,152.1254,-0.0011441,-0.00017655,0.0,0 STARLINK-3451,1 51749U 22016AM  23095.58334491 -.00017655  00000-0 -11441-2 0  9992,2 51749  53.2150  78.5363 0001514  84.6890 152.1254 15.07203691  1300,6922.886,95.541,545.8,543.703,0.0
51749.0,STARLINK-3451,PAYLOAD,2023-04-05 16:00:00,15.0719879,0.000152,53.2152,78.1627,87.3495,241.8717,-0.00041635,-6.614e-05,0.0,0 STARLINK-3451,1 51749U 22016AM  23095.66667824 -.00006614  00000-0 -41635-3 0  9992,2 51749  53.2152  78.1627 0001520  87.3495 241.8717 15.07198790 63287,6922.901,95.541,545.819,543.714,0.0
51749.0,STARLINK-3451,PAYLOAD,2023-04-05 22:00:00,15.07191472,0.0001578,53.2152,77.0425,93.3709,153.0655,0.0028584,0.00043479,0.0,0 STARLINK-3451,1 51749U 22016AM  23095.91667824  .00043479  00000-0  28584-2 0  9995,2 51749  53.2152  77.0425 0001578  93.3709 153.0655 15.07191472  1309,6922.924,95.542,545.881,543.696,0.0
51749.0,STARLINK-3451,PAYLOAD,2023-04-06 14:00:01,15.07208246,0.0001531,53.2156,74.058,90.5099,175.2491,-0.0013088,-0.00020152,0.0,0 STARLINK-3451,1 51749U 22016AM  23096.58335648 -.00020152  00000-0 -13088-2 0  9993,2 51749  53.2156  74.0580 0001531  90.5099 175.2491 15.07208246 63425,6922.873,95.541,545.797,543.678,0.0
51749.0,STARLINK-3451,PAYLOAD,2023-04-06 22:00:00,15.07198213,0.0001611,53.216,72.5644,98.8827,176.4393,0.0026925,0.00040932,0.0,0 STARLINK-3451,1 51749U 22016AM  23096.91667824  .00040932  00000-0  26925-2 0  9994,2 51749  53.2160  72.5644 0001611  98.8827 176.4393 15.07198213  1308,6922.903,95.542,545.884,543.653,0.0
51749.0,STARLINK-3451,PAYLOAD,2023-04-07 08:00:01,15.07198236,0.0001613,53.2164,70.7007,93.3662,284.0148,-0.00034314,-5.502e-05,0.0,0 STARLINK-3451,1 51749U 22016AM  23097.33334491 -.00005502  00000-0 -34314-3 0  9990,2 51749  53.2164  70.7007 0001613  93.3662 284.0148 15.07198236 63547,6922.903,95.542,545.885,543.651,0.0
51749.0,STARLINK-3451,PAYLOAD,2023-04-07 14:00:01,15.07204223,0.0001569,53.2164,69.5801,98.6522,195.9424,-0.0013293,-0.0002046,0.0,0 STARLINK-3451,1 51749U 22016AM  23097.58334491 -.00020460  00000-0 -13293-2 0  9999,2 51749  53.2164  69.5801 0001569  98.6522 195.9424 15.07204223  1305,6922.885,95.541,545.836,543.664,0.0
51749.0,STARLINK-3451,PAYLOAD,2023-04-07 22:00:00,15.07297975,0.0001315,53.2169,68.0867,77.9547,226.2903,-0.0099041,-0.00148312,0.0,0 STARLINK-3451,1 51749U 22016AM  23097.91667824 -.00148312  00000-0 -99041-2 0  9997,2 51749  53.2169  68.0867 0001315  77.9547 226.2903 15.07297975 63621,6922.598,95.535,545.373,543.552,0.0
51749.0,STARLINK-3451,PAYLOAD,2023-04-08 14:00:01,15.0720496,0.0001666,53.2171,65.1025,76.3992,247.0873,-0.0018741,-0.00028697,0.0,0 STARLINK-3451,1 51749U 22016AM  23098.58334491 -.00028697  00000-0 -18741-2 0  9993,2 51749  53.2171  65.1025 0001666  76.3992 247.0873 15.07204960  1300,6922.883,95.541,545.901,543.594,0.0
51749.0,STARLINK-3451,PAYLOAD,2023-04-08 16:00:00,15.07185727,0.000158,53.2173,64.7289,81.8365,334.0622,0.0013461,0.00020255,0.0,0 STARLINK-3451,1 51749U 22016AM  23098.66667824  .00020255  00000-0  13461-2 0  9995,2 51749  53.2173  64.7289 0001580  81.8365 334.0622 15.07185727 63743,6922.941,95.542,545.9,543.713,0.0
51749.0,STARLINK-3451,PAYLOAD,2023-04-09 06:04:37,15.07209098,0.0001597,53.2181,62.1042,84.4315,275.6858,-2.9624e-05,-7.34e-06,0.0,0 STARLINK-3451,1 51749U 22016AM  23099.25321201 -.00000734  00000-0 -29624-4 0  9999,2 51749  53.2181  62.1042 0001597  84.4315 275.6858 15.07209098 62718,6922.87,95.541,545.84,543.629,0.0
51749.0,STARLINK-3451,PAYLOAD,2023-04-10 07:32:26,15.07204836,0.0001626,53.2179,57.3531,84.3201,275.7976,0.00019979,2.759e-05,0.0,0 STARLINK-3451,1 51749U 22016AM  23100.31420069  .00002759  00000-0  19979-3 0  9999,2 51749  53.2179  57.3531 0001626  84.3201 275.7976 15.07204836 63987,6922.883,95.541,545.874,543.622,0.0
51749.0,STARLINK-3451,PAYLOAD,2023-04-11 05:49:17,15.07214855,0.0001713,53.2175,53.1956,92.0493,268.0694,3.9222e-05,3.14e-06,0.0,0 STARLINK-3451,1 51749U 22016AM  23101.24256597  .00000314  00000-0  39222-4 0  9994,2 51749  53.2175  53.1956 0001713  92.0493 268.0694 15.07214855 63012,6922.852,95.54,545.903,543.531,0.0
51749.0,STARLINK-3451,PAYLOAD,2023-04-12 04:06:09,15.07204046,0.0001502,53.2185,49.0385,97.7986,262.3176,-4.3223e-05,-9.41e-06,0.0,0 STARLINK-3451,1 51749U 22016AM  23102.17094294 -.00000941  00000-0 -43223-4 0  9995,2 51749  53.2185  49.0385 0001502  97.7986 262.3176 15.07204046 64269,6922.885,95.541,545.79,543.711,0.0
51749.0,STARLINK-3451,PAYLOAD,2023-04-12 13:39:05,15.07201876,0.0001424,53.2181,47.2568,94.1753,265.9401,-5.132e-05,-1.064e-05,0.0,0 STARLINK-3451,1 51749U 22016AM  23102.56881608 -.00001064  00000-0 -51320-4 0  9995,2 51749  53.2181  47.2568 0001424  94.1753 265.9401 15.07201876 63216,6922.892,95.541,545.743,543.771,0.0
51749.0,STARLINK-3451,PAYLOAD,2023-04-13 05:33:58,15.07215341,0.0001398,53.2177,44.2858,103.3929,256.7218,7.7511e-05,8.97e-06,0.0,0 STARLINK-3451,1 51749U 22016AM  23103.23192433  .00000897  00000-0  77511-4 0  9992,2 51749  53.2177  44.2858 0001398 103.3929 256.7218 15.07215341 63315,6922.851,95.54,545.684,543.748,0.0
51749.0,STARLINK-3451,PAYLOAD,2023-04-13 13:31:25,15.0720795,0.0001344,53.2173,42.8009,102.633,257.4812,-1.4243e-05,-5e-06,0.0,0 STARLINK-3451,1 51749U 22016AM  23103.56348868 -.00000500  00000-0 -14243-4 0  9999,2 51749  53.2173  42.8009 0001344 102.6330 257.4812 15.07207950 64475,6922.873,95.541,545.669,543.808,0.0
51749.0,STARLINK-3451,PAYLOAD,2023-04-14 05:26:18,15.07212215,0.0001329,53.2182,39.8322,97.1691,262.9452,0.00015807,2.124e-05,0.0,0 STARLINK-3451,1 51749U 22016AM  23104.22660356  .00002124  00000-0  15807-3 0  9990,2 51749  53.2182  39.8322 0001329  97.1691 262.9452 15.07212215 63469,6922.86,95.541,545.645,543.805,0.0
51749.0,STARLINK-3451,PAYLOAD,2023-04-14 22:56:42,15.07205982,0.0001071,53.2183,36.5692,72.7681,287.3428,6.5289e-05,7.11e-06,0.0,0 STARLINK-3451,1 51749U 22016AM  23104.95604188  .00000711  00000-0  65289-4 0  9991,2 51749  53.2183  36.5692 0001071  72.7681 287.3428 15.07205982 64688,6922.879,95.541,545.486,544.003,0.0
51749.0,STARLINK-3451,PAYLOAD,2023-04-15 05:18:38,15.07216073,0.0001258,53.2182,35.3783,94.3092,265.8043,8.2882e-05,9.79e-06,0.0,0 STARLINK-3451,1 51749U 22016AM  23105.22128221  .00000979  00000-0  82882-4 0  9995,2 51749  53.2182  35.3783 0001258  94.3092 265.8043 15.07216073 64720,6922.849,95.54,545.584,543.843,0.0
51749.0,STARLINK-3451,PAYLOAD,2023-04-15 19:38:03,15.07201307,0.0001393,53.2177,32.7057,115.2661,244.8474,-4.9143e-05,-1.031e-05,0.0,0 STARLINK-3451,1 51749U 22016AM  23105.81809612 -.00001031  00000-0 -49143-4 0  9995,2 51749  53.2177  32.7057 0001393 115.2661 244.8474 15.07201307 64813,6922.894,95.541,545.723,543.794,0.0
51749.0,STARLINK-3451,PAYLOAD,2023-04-16 03:35:29,15.07216523,0.0001141,53.2177,31.2235,107.2528,252.8589,0.00012175,1.571e-05,0.0,0 STARLINK-3451,1 51749U 22016AM  23106.14964873  .00001571  00000-0  12175-3 0  9994,2 51749  53.2177  31.2235 0001141 107.2528 252.8589 15.07216523 64866,6922.847,95.54,545.502,543.922,0.0
51749.0,STARLINK-3451,PAYLOAD,2023-04-17 05:03:19,15.07206709,9.72e-05,53.2176,26.4726,107.5245,252.5853,8.5122e-05,1.013e-05,0.0,0 STARLINK-3451,1 51749U 22016AM  23107.21064510  .00001013  00000-0  85122-4 0  9996,2 51749  53.2176  26.4726 0000972 107.5245 252.5853 15.07206709 65021,6922.877,95.541,545.415,544.069,0.0
51749.0,STARLINK-3451,PAYLOAD,2023-04-18 03:20:11,15.07207147,0.0001031,53.2174,22.3162,108.1373,251.973,0.00014954,1.994e-05,0.0,0 STARLINK-3451,1 51749U 22016AM  23108.13901627  .00001994  00000-0  14954-3 0  9999,2 51749  53.2174  22.3162 0001031 108.1373 251.9730 15.07207147 64050,6922.876,95.541,545.455,544.027,0.0
51749.0,STARLINK-3451,PAYLOAD,2023-04-19 03:12:31,15.07208184,0.0001195,53.2186,17.8602,83.2905,276.8223,0.0001981,2.734e-05,0.0,0 STARLINK-3451,1 51749U 22016AM  23109.13369825  .00002734  00000-0  19810-3 0  9997,2 51749  53.2186  17.8602 0001195  83.2905 276.8223 15.07208184 65311,6922.873,95.541,545.565,543.91,0.0
51749.0,STARLINK-3451,PAYLOAD,2023-04-20 06:15:26,15.07616918,0.000112,53.2193,12.8113,119.3108,240.7996,0.0054716,0.00084957,0.0,0 STARLINK-3451,1 51749U 22016AM  23110.26072005  .00084957  00000-0  54716-2 0  9994,2 51749  53.2193  12.8113 0001120 119.3108 240.7996 15.07616918 65488,6921.621,95.515,544.262,542.711,0.0
51749.0,STARLINK-3451,PAYLOAD,2023-04-21 14:00:01,15.0879942,9.71e-05,53.2179,6.8787,85.6806,260.5965,0.0030631,0.00048744,0.0,0 STARLINK-3451,1 51749U 22016AM  23111.58334491  .00048744  00000-0  30631-2 0  9994,2 51749  53.2179   6.8787 0000971  85.6806 260.5965 15.08799420 65684,6918.004,95.44,540.541,539.198,0.0
51749.0,STARLINK-3451,PAYLOAD,2023-04-22 00:00:02,15.08854655,9.97e-05,53.218,5.0098,87.9034,2.9359,-0.0039282,-0.00062288,0.0,0 STARLINK-3451,1 51749U 22016AM  23112.00002315 -.00062288  00000-0 -39282-2 0  9991,2 51749  53.2180   5.0098 0000997  87.9034   2.9359 15.08854655  1304,6917.836,95.437,540.39,539.011,0.0
51749.0,STARLINK-3451,PAYLOAD,2023-04-22 14:00:01,15.08813862,9.38e-05,53.2179,2.3895,110.7211,270.3444,0.0049323,0.00079034,0.0,0 STARLINK-3451,1 51749U 22016AM  23112.58334491  .00079034  00000-0  49323-2 0  9999,2 51749  53.2179   2.3895 0000938 110.7211 270.3444 15.08813862  1305,6917.96,95.439,540.474,539.176,0.0
